NORAD_CAT_ID,OBJECT_NAME,OBJECT_TYPE,EPOCH,MEAN_MOTION,ECCENTRICITY,INCLINATION,RA_OF_ASC_NODE,ARG_OF_PERICENTER,MEAN_ANOMALY,BSTAR,MEAN_MOTION_DOT,MEAN_MOTION_DDOT,TLE_LINE0,TLE_LINE1,TLE_LINE2,SEMIMAJOR_AXIS,PERIOD,APOGEE,PERIGEE,DECAYED
55631.0,STARLINK-5558,PAYLOAD,2023-11-20 14:28:50,14.98331173,0.0002774,69.9992,162.5226,270.8224,89.2617,-2.8371e-05,-4.31e-06,0.0,0 STARLINK-5558,1 55631U 23021D   23324.60335953 -.00000431  00000-0 -28371-4 0  9991,2 55631  69.9992 162.5226 0002774 270.8224  89.2617 14.98331173 42464,6950.189,96.107,573.982,570.126,0.0
55631.0,STARLINK-5558,PAYLOAD,2023-11-20 22:29:30,14.98331925,0.0002756,69.9988,161.6808,271.0803,89.004,-1.8665e-05,-3.16e-06,0.0,0 STARLINK-5558,1 55631U 23021D   23324.93715827 -.00000316  00000-0 -18665-4 0  9996,2 55631  69.9988 161.6808 0002756 271.0803  89.0040 14.98331925 42510,6950.187,96.107,573.967,570.136,0.0
55631.0,STARLINK-5558,PAYLOAD,2023-11-21 00:05:38,14.98331665,0.0002757,69.9987,161.5124,271.1718,88.9125,-2.1536e-05,-3.5e-06,0.0,0 STARLINK-5558,1 55631U 23021D   23325.00391840 -.00000350  00000-0 -21536-4 0  9999,2 55631  69.9987 161.5124 0002757 271.1718  88.9125 14.98331665 42227,6950.188,96.107,573.969,570.137,0.0
55631.0,STARLINK-5558,PAYLOAD,2023-11-21 12:54:43,14.98330762,0.0002734,69.9987,160.1659,270.995,89.0896,-3.2242e-05,-4.78e-06,0.0,0 STARLINK-5558,1 55631U 23021D   23325.53799873 -.00000478  00000-0 -32242-4 0  9992,2 55631  69.9987 160.1659 0002734 270.9950  89.0896 14.98330762 42601,6950.191,96.107,573.956,570.155,0.0
55631.0,STARLINK-5558,PAYLOAD,2023-11-21 20:55:23,14.9833128,0.0002666,69.9985,159.3242,268.1586,91.9268,-1.6184e-05,-2.86e-06,0.0,0 STARLINK-5558,1 55631U 23021D   23325.87179751 -.00000286  00000-0 -16184-4 0  9990,2 55631  69.9985 159.3242 0002666 268.1586  91.9268 14.98331280 42651,6950.189,96.107,573.907,570.201,0.0
55631.0,STARLINK-5558,PAYLOAD,2023-11-22 14:32:51,14.98331247,0.0002737,69.9983,157.4725,270.4395,89.645,2.1693e-05,1.66e-06,0.0,0 STARLINK-5558,1 55631U 23021D   23326.60615545  .00000166  00000-0  21693-4 0  9994,2 55631  69.9983 157.4725 0002737 270.4395  89.6450 14.98331247 42769,6950.189,96.107,573.956,570.152,0.0
55631.0,STARLINK-5558,PAYLOAD,2023-11-22 19:21:15,14.98332029,0.0002716,69.9983,156.9676,270.1634,89.9213,3.7631e-05,3.56e-06,0.0,0 STARLINK-5558,1 55631U 23021D   23326.80643425  .00000356  00000-0  37631-4 0  9994,2 55631  69.9983 156.9676 0002716 270.1634  89.9213 14.98332029 42497,6950.187,96.107,573.939,570.164,0.0
55631.0,STARLINK-5558,PAYLOAD,2023-11-22 20:57:23,14.98332071,0.0002715,69.9983,156.7992,270.1897,89.8951,3.7668e-05,3.57e-06,0.0,0 STARLINK-5558,1 55631U 23021D   23326.87319417  .00000357  00000-0  37668-4 0  9993,2 55631  69.9983 156.7992 0002715 270.1897  89.8951 14.98332071 42806,6950.186,96.107,573.938,570.165,0.0
55631.0,STARLINK-5558,PAYLOAD,2023-11-23 14:34:53,14.98324873,0.0002654,69.9983,154.9473,270.5043,89.5811,-4.7132e-05,-6.55e-06,0.0,0 STARLINK-5558,1 55631U 23021D   23327.60756133 -.00000655  00000-0 -47132-4 0  9995,2 55631  69.9983 154.9473 0002654 270.5043  89.5811 14.98324873 42914,6950.209,96.107,573.918,570.229,0.0
55631.0,STARLINK-5558,PAYLOAD,2023-11-23 19:23:17,14.98324505,0.0002525,69.9986,154.4428,263.2491,96.838,-4.2261e-05,-5.97e-06,0.0,0 STARLINK-5558,1 55631U 23021D   23327.80784167 -.00000597  00000-0 -42261-4 0  9998,2 55631  69.9986 154.4428 0002525 263.2491  96.8380 14.98324505 42649,6950.21,96.107,573.83,570.32,0.0
55631.0,STARLINK-5558,PAYLOAD,2023-11-23 22:35:33,14.98323945,0.0002564,69.9986,154.1063,265.3562,94.7304,-4.9383e-05,-6.82e-06,0.0,0 STARLINK-5558,1 55631U 23021D   23327.94136275 -.00000682  00000-0 -49383-4 0  9991,2 55631  69.9986 154.1063 0002564 265.3562  94.7304 14.98323945 42961,6950.212,96.107,573.859,570.295,0.0
55631.0,STARLINK-5558,PAYLOAD,2023-11-24 14:36:54,14.98330148,0.0002616,69.9986,152.4224,266.7121,93.3739,-1.7216e-05,-2.98e-06,0.0,0 STARLINK-5558,1 55631U 23021D   23328.60895877 -.00000298  00000-0 -17216-4 0  9998,2 55631  69.9986 152.4224 0002616 266.7121  93.3739 14.98330148 43067,6950.192,96.107,573.876,570.239,0.0
55631.0,STARLINK-5558,PAYLOAD,2023-11-24 19:25:18,14.98329836,0.0002617,69.9985,151.9174,266.6359,93.4501,-1.7466e-05,-3.01e-06,0.0,0 STARLINK-5558,1 55631U 23021D   23328.80923902 -.00000301  00000-0 -17466-4 0  9993,2 55631  69.9985 151.9174 0002617 266.6359  93.4501 14.98329836 42796,6950.193,96.107,573.877,570.24,0.0
55631.0,STARLINK-5558,PAYLOAD,2023-11-24 21:01:26,14.98329541,0.0002629,69.9985,151.7491,267.0888,92.997,-2.0734e-05,-3.4e-06,0.0,0 STARLINK-5558,1 55631U 23021D   23328.87599936 -.00000340  00000-0 -20734-4 0  9991,2 55631  69.9985 151.7491 0002629 267.0888  92.9970 14.98329541 43104,6950.194,96.107,573.887,570.232,0.0
55631.0,STARLINK-5558,PAYLOAD,2023-11-25 14:38:54,14.98331497,0.0002797,69.9982,149.8973,269.4492,90.6346,9.6733e-05,1.061e-05,0.0,0 STARLINK-5558,1 55631U 23021D   23329.61035427  .00001061  00000-0  96733-4 0  9995,2 55631  69.9982 149.8973 0002797 269.4492  90.6346 14.98331497 43214,6950.188,96.107,573.997,570.109,0.0
55631.0,STARLINK-5558,PAYLOAD,2023-11-25 21:03:26,14.98334931,0.0002511,69.9983,149.2241,263.023,97.0643,0.0001296,1.454e-05,0.0,0 STARLINK-5558,1 55631U 23021D   23329.87739061  .00001454  00000-0  12960-3 0  9993,2 55631  69.9983 149.2241 0002511 263.0230  97.0643 14.98334931 43252,6950.178,96.107,573.788,570.297,0.0
55631.0,STARLINK-5558,PAYLOAD,2023-11-26 14:40:55,14.98332141,0.0002386,69.9987,147.3728,259.5067,100.5823,2.2178e-05,1.72e-06,0.0,0 STARLINK-5558,1 55631U 23021D   23330.61175362  .00000172  00000-0  22178-4 0  9994,2 55631  69.9987 147.3728 0002386 259.5067 100.5823 14.98332141 43366,6950.186,96.107,573.71,570.393,0.0
55631.0,STARLINK-5558,PAYLOAD,2023-11-26 19:29:19,14.98328678,0.0002381,69.9995,146.8687,256.2579,103.8315,-4.2486e-06,-1.44e-06,0.0,0 STARLINK-5558,1 55631U 23021D   23330.81203618 -.00000144  00000-0 -42486-5 0  9998,2 55631  69.9995 146.8687 0002381 256.2579 103.8315 14.98328678 43092,6950.197,96.107,573.717,570.407,0.0
55631.0,STARLINK-5558,PAYLOAD,2023-11-26 21:05:27,14.98328766,0.000237,69.9994,146.7004,255.8017,104.2879,-1.0988e-06,-1.06e-06,0.0,0 STARLINK-5558,1 55631U 23021D   23330.87879600 -.00000106  00000-0 -10988-5 0  9994,2 55631  69.9994 146.7004 0002370 255.8017 104.2879 14.98328766 43406,6950.197,96.107,573.709,570.415,0.0
55631.0,STARLINK-5558,PAYLOAD,2023-11-27 14:42:56,14.98329754,0.0002351,69.9996,144.8496,259.3634,100.726,-5.5577e-05,-7.56e-06,0.0,0 STARLINK-5558,1 55631U 23021D   23331.61315602 -.00000756  00000-0 -55577-4 0  9997,2 55631  69.9996 144.8496 0002351 259.3634 100.7260 14.98329754 43510,6950.194,96.107,573.693,570.425,0.0
55631.0,STARLINK-5558,PAYLOAD,2023-11-27 21:07:28,14.983294,0.0002357,69.9996,144.1765,258.5999,101.4895,-6.7679e-05,-9e-06,0.0,0 STARLINK-5558,1 55631U 23021D   23331.88019648 -.00000900  00000-0 -67679-4 0  9994,2 55631  69.9996 144.1765 0002357 258.5999 101.4895 14.98329400 43557,6950.195,96.107,573.698,570.422,0.0
55631.0,STARLINK-5558,PAYLOAD,2023-11-28 14:44:57,14.98330249,0.0002538,69.999,142.3239,267.1744,92.9124,-5.2962e-07,-9.9e-07,0.0,0 STARLINK-5558,1 55631U 23021D   23332.61455333 -.00000099  00000-0 -52962-6 0  9991,2 55631  69.9990 142.3239 0002538 267.1744  92.9124 14.98330249 43666,6950.192,96.107,573.821,570.293,0.0
55631.0,STARLINK-5558,PAYLOAD,2023-11-28 19:33:21,14.98330144,0.0002611,69.9992,141.8195,268.2152,91.8708,1.2116e-05,5.2e-07,0.0,0 STARLINK-5558,1 55631U 23021D   23332.81483303  .00000052  00000-0  12116-4 0  9993,2 55631  69.9992 141.8195 0002611 268.2152  91.8708 14.98330144 43693,6950.192,96.107,573.872,570.243,0.0
55631.0,STARLINK-5558,PAYLOAD,2023-11-29 11:34:42,14.98328169,0.0002764,69.9992,140.1358,270.7162,89.368,1.7564e-05,1.17e-06,0.0,0 STARLINK-5558,1 55631U 23021D   23333.48243397  .00000117  00000-0  17564-4 0  9998,2 55631  69.9992 140.1358 0002764 270.7162  89.3680 14.98328169 43497,6950.199,96.107,573.985,570.143,0.0
55631.0,STARLINK-5558,PAYLOAD,2023-11-29 14:46:58,14.98327561,0.0002795,69.9991,139.7992,271.3286,88.7553,8.4792e-06,8e-08,0.0,0 STARLINK-5558,1 55631U 23021D   23333.61595473  .00000008  00000-0  84792-5 0  9995,2 55631  69.9991 139.7992 0002795 271.3286  88.7553 14.98327561 43815,6950.2,96.107,574.008,570.123,0.0
55631.0,STARLINK-5558,PAYLOAD,2023-11-30 11:36:43,14.98330435,0.000271,69.9993,137.6106,270.8853,89.1995,6.6204e-06,-1.4e-07,0.0,0 STARLINK-5558,1 55631U 23021D   23334.48383294 -.00000014  00000-0  66204-5 0  9993,2 55631  69.9993 137.6106 0002710 270.8853  89.1995 14.98330435 43642,6950.192,96.107,573.94,570.173,0.0
55631.0,STARLINK-5558,PAYLOAD,2023-12-01 11:38:43,14.9833184,0.0002724,69.9992,135.0858,270.8663,89.2184,3.1953e-05,2.88e-06,0.0,0 STARLINK-5558,1 55631U 23021D   23335.48523024  .00000288  00000-0  31953-4 0  9995,2 55631  69.9992 135.0858 0002724 270.8663  89.2184 14.98331840 43799,6950.187,96.107,573.945,570.159,0.0
55631.0,STARLINK-5558,PAYLOAD,2023-12-01 21:15:32,14.9833432,0.0002685,69.9993,134.0758,269.5907,90.4945,5.5247e-05,5.66e-06,0.0,0 STARLINK-5558,1 55631U 23021D   23335.88578718  .00000566  00000-0  55247-4 0  9990,2 55631  69.9993 134.0758 0002685 269.5907  90.4945 14.98334320 44156,6950.18,96.107,573.911,570.178,0.0
55631.0,STARLINK-5558,PAYLOAD,2023-12-02 11:40:44,14.98334053,0.0002656,69.9994,132.561,267.67,92.4155,4.5116e-05,4.45e-06,0.0,0 STARLINK-5558,1 55631U 23021D   23336.48662556  .00000445  00000-0  45116-4 0  9991,2 55631  69.9994 132.5610 0002656 267.6700  92.4155 14.98334053 43949,6950.18,96.107,573.891,570.199,0.0
55631.0,STARLINK-5558,PAYLOAD,2023-12-02 13:16:52,14.98333496,0.0002666,69.9993,132.3927,267.4373,92.648,3.7325e-05,3.52e-06,0.0,0 STARLINK-5558,1 55631U 23021D   23336.55338580  .00000352  00000-0  37325-4 0  9996,2 55631  69.9993 132.3927 0002666 267.4373  92.6480 14.98333496 44250,6950.182,96.107,573.9,570.194,0.0
